ORBCOMM FM33            
1 25983U 99065D   24182.81325667  .00001536  00000+0  55084-3 0  9990
2 25983  45.0278 226.9421 0006216  94.2493 265.9066 14.37888129285456
ORBCOMM FM36            
1 25984U 99065E   24183.48460892  .00002244  00000+0  81650-3 0  9990
2 25984  45.0402 310.1459 0003160 303.4012  56.6533 14.35813458284566
ORBCOMM FM35            
1 25985U 99065F   24183.05575066  .00001672  00000+0  62673-3 0  9992
2 25985  45.0414 314.9985 0002315 105.7520 254.3583 14.35327681284496
ORBCOMM FM34            
1 25986U 99065G   24182.67921901  .00001876  00000+0  69782-3 0  9997
2 25986  45.0408 317.3191 0002169  10.8575 349.2319 14.35302042284360
ORBCOMM FM38            
1 33060U 08031A   24183.22580014  .00002973  00000+0  43745-3 0  9990
2 33060  48.4386 183.7162 0006113 333.0379  27.0217 14.77876058862765
ORBCOMM FM41            
1 33061U 08031B   24182.77204700  .00002849  00000+0  42303-3 0  9996
2 33061  48.4423 192.6095 0005365 318.1033 212.1095 14.77597140862203
ORBCOMM FM29            
1 33062U 08031C   24183.15090765  .00002801  00000+0  41691-3 0  9991
2 33062  48.4377 198.8506 0007246 317.8456 119.9133 14.77544870862560
ORBCOMM FM39            
1 33063U 08031D   24183.47588418  .00002345  00000+0  36228-3 0  9997
2 33063  48.4392 218.2302 0008202 295.5073  64.4992 14.76507427862337
